ONEWEB-0043             
1 45149U 20008U   23308.81823799 -.00000155  00000+0 -48135-3 0  9992
2 45149  87.8923 225.9978 0002292  69.6137 290.5237 13.10377780183840
ONEWEB-0044             
1 45150U 20008V   23308.84747463  .00000759  00000+0  21369-2 0  9997
2 45150  87.8918 225.9899 0002090  69.9644 290.1708 13.10375269184132
ONEWEB-0045             
1 45151U 20008W   23308.77437586 -.00000204  00000+0 -61064-3 0  9996
2 45151  87.9002 210.8677 0001643  73.1141 287.0167 13.11418933185184
ONEWEB-0047             
1 45152U 20008X   23309.14478697  .00000562  00000+0  15737-2 0  9997
2 45152  87.8922 225.9321 0001841  71.1344 288.9983 13.10379685183915
ONEWEB-0048             
1 45153U 20008Y   23308.83448056  .00000559  00000+0  15654-2 0  9993
2 45153  87.8923 226.0044 0001855  71.5982 288.5346 13.10378117182690
ONEWEB-0049             
1 45154U 20008Z   23308.83612157  .00000708  00000+0  19930-2 0  9996
2 45154  87.8928 225.9751 0001925  75.3018 284.8323 13.10378880182915
ONEWEB-0051             
1 45155U 20008AA  23308.77276320 -.00000383  00000+0 -11172-2 0  9999
2 45155  87.9008 210.9027 0001500  72.6192 287.5100 13.11415805185868
ONEWEB-0052             
1 45156U 20008AB  23309.13828563  .00000400  00000+0  11093-2 0  9993
2 45156  87.8929 225.8995 0002501  81.6957 278.4454 13.10375501183620
